NOAA 18                 
1 28654U 05018A   26067.90483026  .00000085  00000+0  68033-4 0  9998
2 28654  98.8156 149.0231 0015294  77.5498 282.7385 14.13710717 72146
NOAA 19                 
1 33591U 09005A   26067.88587830  .00000074  00000+0  63047-4 0  9997
2 33591  98.9607 138.6556 0012920 317.1527  42.8637 14.13456607880313
SUOMI NPP               
1 37849U 11061A   26067.89741873  .00000134  00000+0  84404-4 0  9999
2 37849  98.7868   9.5064 0000438 236.1926 123.9208 14.19543343744217
NOAA 20 (JPSS-1)        
1 43013U 17073A   26067.91208773  .00000109  00000+0  72493-4 0  9995
2 43013  98.7691   8.3070 0001185 139.3028 220.8237 14.19535841430240
