[{"OBJECT_NAME":"NOAA 18","OBJECT_ID":"2005-018A","EPOCH":"2026-03-08T21:42:57.334464","MEAN_MOTION":14.13710717,"ECCENTRICITY":0.00152942,"INCLINATION":98.8156,"RA_OF_ASC_NODE":149.0231,"ARG_OF_PERICENTER":77.5498,"MEAN_ANOMALY":282.7385,"EPHEMERIS_TYPE":0,"CLASSIFICATION_TYPE":"U","NORAD_CAT_ID":28654,"ELEMENT_SET_NO":999,"REV_AT_EPOCH":7214,"BSTAR":6.8033423e-5,"MEAN_MOTION_DOT":8.5e-7,"MEAN_MOTION_DDOT":0},{"OBJECT_NAME":"NOAA 19","OBJECT_ID":"2009-005A","EPOCH":"2026-03-08T21:15:39.885120","MEAN_MOTION":14.13456607,"ECCENTRICITY":0.00129208,"INCLINATION":98.9607,"RA_OF_ASC_NODE":138.6556,"ARG_OF_PERICENTER":317.1527,"MEAN_ANOMALY":42.8637,"EPHEMERIS_TYPE":0,"CLASSIFICATION_TYPE":"U","NORAD_CAT_ID":33591,"ELEMENT_SET_NO":999,"REV_AT_EPOCH":88031,"BSTAR":6.3046999e-5,"MEAN_MOTION_DOT":7.4e-7,"MEAN_MOTION_DDOT":0},{"OBJECT_NAME":"SUOMI NPP","OBJECT_ID":"2011-061A","EPOCH":"2026-03-08T21:32:16.978272","MEAN_MOTION":14.19543343,"ECCENTRICITY":4.382e-5,"INCLINATION":98.7868,"RA_OF_ASC_NODE":9.5064,"ARG_OF_PERICENTER":236.1926,"MEAN_ANOMALY":123.9208,"EPHEMERIS_TYPE":0,"CLASSIFICATION_TYPE":"U","NORAD_CAT_ID":37849,"ELEMENT_SET_NO":999,"REV_AT_EPOCH":74421,"BSTAR":8.4403593e-5,"MEAN_MOTION_DOT":1.34e-6,"MEAN_MOTION_DDOT":0},{"OBJECT_NAME":"NOAA 20 (JPSS-1)","OBJECT_ID":"2017-073A","EPOCH":"2026-03-08T21:53:24.379872","MEAN_MOTION":14.19535841,"ECCENTRICITY":0.00011855,"INCLINATION":98.7691,"RA_OF_ASC_NODE":8.307,"ARG_OF_PERICENTER":139.3028,"MEAN_ANOMALY":220.8237,"EPHEMERIS_TYPE":0,"CLASSIFICATION_TYPE":"U","NORAD_CAT_ID":43013,"ELEMENT_SET_NO":999,"REV_AT_EPOCH":43024,"BSTAR":7.2493141e-5,"MEAN_MOTION_DOT":1.09e-6,"MEAN_MOTION_DDOT":0}]
